0 CBERS 1 DEB
1 35384U 99057SP  13279.73713111  .00008674  00000-0  21163-2 0  3218
2 35384 098.2458 258.6671 0012506 036.6000 088.4839 14.52827859313542
0 CBERS 1 DEB
1 35384U 99057SP  13282.42862083  .00014005  00000-0  34030-2 0  3224
2 35384 098.2458 261.3134 0012279 029.9629 124.0360 14.52890201313936
0 CBERS 1 DEB
1 35384U 99057SP  13283.16749193  .00012192  00000-0  29641-2 0  3230
2 35384 098.2458 262.0400 0012232 027.9505 028.3822 14.52900301314045
0 CBERS 1 DEB
1 35384U 99057SP  13283.70770876  .00010459  00000-0  25385-2 0  3237
2 35384 098.2464 262.5663 0013360 027.4789 332.7602 14.52908251314477
0 CBERS 1 DEB
1 35384U 99057SP  13287.72560333  .00015104  00000-0  36613-2 0  3258
2 35384 098.2455 266.5220 0011859 016.2251 107.7234 14.52986792314704
0 CBERS 1 DEB
1 35384U 99057SP  13290.41679303  .00015464  00000-0  37428-2 0  3261
2 35384 098.2458 269.1690 0011557 008.7296 144.2561 14.53055538315095
0 CBERS 1 DEB
1 35384U 99057SP  13292.41382653  .00012954  00000-0  31351-2 0  3273
2 35384 098.2465 271.1332 0011310 003.3795 150.1361 14.53104668315386
